ACS3                    
1 59588U 24077B   24278.73169804  .00000470  00000+0  56380-3 0  9991
2 59588  97.4391 321.5494 0049406 185.8434 174.2148 13.69949654 22382
